{
"idIcoreGis":"001",
"coordinateX":"113.312082",
"coordinateY":"23.712739",
"provinceCode":"440000",
"cityCode":"440100",
"areaCode":"440106"
},{
"idIcoreGis":"002",
"coordinateX":"113.624165",
"coordinateY":"23.673443",
"provinceCode":"440000",
"cityCode":"440100",
"areaCode":"440106"
},{
"idIcoreGis":"003",
"coordinateX":"113.936248",
"coordinateY":"23.634148",
"provinceCode":"440000",
"cityCode":"440100",
"areaCode":"440106"
},{
"idIcoreGis":"004",
"coordinateX":"113.248331",
"coordinateY":"23.594853",
"provinceCode":"440000",
"cityCode":"440100",
"areaCode":"440106"
},{
"idIcoreGis":"005",
"coordinateX":"113.560413",
"coordinateY":"23.555558",
"provinceCode":"440000",
"cityCode":"440100",
"areaCode":"440106"
},{
"idIcoreGis":"006",
"coordinateX":"113.872496",
"coordinateY":"23.516262",
"provinceCode":"440000",
"cityCode":"440100",
"areaCode":"440106"
},{
"idIcoreGis":"007",
"coordinateX":"113.184579",
"coordinateY":"23.476967",
"provinceCode":"440000",
"cityCode":"440100",
"areaCode":"440106"
},{
"idIcoreGis":"008",
"coordinateX":"113.496662",
"coordinateY":"23.437672",
"provinceCode":"440000",
"cityCode":"440100",
"areaCode":"440106"
},{
"idIcoreGis":"009",
"coordinateX":"113.808745",
"coordinateY":"23.398376",
"provinceCode":"440000",
"cityCode":"440100",
"areaCode":"440106"
},{
"idIcoreGis":"010",
"coordinateX":"113.120827",
"coordinateY":"23.359081",
"provinceCode":"440000",
"cityCode":"440100",
"areaCode":"440106"
},{
"idIcoreGis":"011",
"coordinateX":"113.432910",
"coordinateY":"23.319785",
"provinceCode":"440000",
"cityCode":"440100",
"areaCode":"440106"
},{
"idIcoreGis":"012",
"coordinateX":"113.744993",
"coordinateY":"23.280490",
"provinceCode":"440000",
"cityCode":"440100",
"areaCode":"440106"
},{
"idIcoreGis":"013",
"coordinateX":"113.057076",
"coordinateY":"23.241195",
"provinceCode":"440000",
"cityCode":"440100",
"areaCode":"440106"
},{
"idIcoreGis":"014",
"coordinateX":"113.369159",
"coordinateY":"23.201899",
"provinceCode":"440000",
"cityCode":"440100",
"areaCode":"440106"
},{
"idIcoreGis":"015",
"coordinateX":"113.681241",
"coordinateY":"23.162604",
"provinceCode":"440000",
"cityCode":"440100",
"areaCode":"440106"
},{
"idIcoreGis":"016",
"coordinateX":"113.993324",
"coordinateY":"23.123309",
"provinceCode":"440000",
"cityCode":"440100",
"areaCode":"440106"
},{
"idIcoreGis":"017",
"coordinateX":"113.305407",
"coordinateY":"23.084013",
"provinceCode":"440000",
"cityCode":"440100",
"areaCode":"440106"
},{
"idIcoreGis":"018",
"coordinateX":"113.617490",
"coordinateY":"23.044718",
"provinceCode":"440000",
"cityCode":"440100",
"areaCode":"440106"
},{
"idIcoreGis":"019",
"coordinateX":"113.929573",
"coordinateY":"23.005422",
"provinceCode":"440000",
"cityCode":"440100",
"areaCode":"440106"
},{
"idIcoreGis":"020",
"coordinateX":"113.241655",
"coordinateY":"23.966127",
"provinceCode":"440000",
"cityCode":"440100",
"areaCode":"440106"
},{
"idIcoreGis":"021",
"coordinateX":"113.553738",
"coordinateY":"23.926832",
"provinceCode":"440000",
"cityCode":"440100",
"areaCode":"440106"
},{
"idIcoreGis":"022",
"coordinateX":"113.865821",
"coordinateY":"23.887537",
"provinceCode":"440000",
"cityCode":"440100",
"areaCode":"440106"
},{
"idIcoreGis":"023",
"coordinateX":"113.177904",
"coordinateY":"23.848241",
"provinceCode":"440000",
"cityCode":"440100",
"areaCode":"440106"
},{
"idIcoreGis":"024",
"coordinateX":"113.489987",
"coordinateY":"23.808946",
"provinceCode":"440000",
"cityCode":"440100",
"areaCode":"440106"
},{
"idIcoreGis":"025",
"coordinateX":"113.802070",
"coordinateY":"23.769651",
"provinceCode":"440000",
"cityCode":"440100",
"areaCode":"440106"
},{
"idIcoreGis":"026",
"coordinateX":"113.114152",
"coordinateY":"23.730355",
"provinceCode":"440000",
"cityCode":"440100",
"areaCode":"440106"
},{
"idIcoreGis":"027",
"coordinateX":"113.426235",
"coordinateY":"23.691060",
"provinceCode":"440000",
"cityCode":"440100",
"areaCode":"440106"
},{
"idIcoreGis":"028",
"coordinateX":"113.738318",
"coordinateY":"23.651765",
"provinceCode":"440000",
"cityCode":"440100",
"areaCode":"440106"
},{
"idIcoreGis":"029",
"coordinateX":"113.050401",
"coordinateY":"23.612469",
"provinceCode":"440000",
"cityCode":"440100",
"areaCode":"440106"
},{
"idIcoreGis":"030",
"coordinateX":"113.362484",
"coordinateY":"23.573174",
"provinceCode":"440000",
"cityCode":"440100",
"areaCode":"440106"
},{
"idIcoreGis":"031",
"coordinateX":"113.674566",
"coordinateY":"23.533878",
"provinceCode":"440000",
"cityCode":"440100",
"areaCode":"440106"
},{
"idIcoreGis":"032",
"coordinateX":"113.986649",
"coordinateY":"23.494583",
"provinceCode":"440000",
"cityCode":"440100",
"areaCode":"440106"
},{
"idIcoreGis":"033",
"coordinateX":"113.298732",
"coordinateY":"23.455288",
"provinceCode":"440000",
"cityCode":"440100",
"areaCode":"440106"
},{
"idIcoreGis":"034",
"coordinateX":"113.610815",
"coordinateY":"23.415992",
"provinceCode":"440000",
"cityCode":"440100",
"areaCode":"440106"
},{
"idIcoreGis":"035",
"coordinateX":"113.922898",
"coordinateY":"23.376697",
"provinceCode":"440000",
"cityCode":"440100",
"areaCode":"440106"
},{
"idIcoreGis":"036",
"coordinateX":"113.234980",
"coordinateY":"23.337402",
"provinceCode":"440000",
"cityCode":"440100",
"areaCode":"440106"
},{
"idIcoreGis":"037",
"coordinateX":"113.547064",
"coordinateY":"23.298107",
"provinceCode":"440000",
"cityCode":"440100",
"areaCode":"440106"
},{
"idIcoreGis":"038",
"coordinateX":"113.859146",
"coordinateY":"23.258811",
"provinceCode":"440000",
"cityCode":"440100",
"areaCode":"440106"
},{
"idIcoreGis":"039",
"coordinateX":"113.171229",
"coordinateY":"23.219516",
"provinceCode":"440000",
"cityCode":"440100",
"areaCode":"440106"
},{
"idIcoreGis":"040",
"coordinateX":"113.483312",
"coordinateY":"23.180221",
"provinceCode":"440000",
"cityCode":"440100",
"areaCode":"440106"
},{
"idIcoreGis":"041",
"coordinateX":"113.795395",
"coordinateY":"23.140925",
"provinceCode":"440000",
"cityCode":"440100",
"areaCode":"440106"
},{
"idIcoreGis":"042",
"coordinateX":"113.107478",
"coordinateY":"23.101630",
"provinceCode":"440000",
"cityCode":"440100",
"areaCode":"440106"
},{
"idIcoreGis":"043",
"coordinateX":"113.419560",
"coordinateY":"23.062335",
"provinceCode":"440000",
"cityCode":"440100",
"areaCode":"440106"
},{
"idIcoreGis":"044",
"coordinateX":"113.731643",
"coordinateY":"23.023039",
"provinceCode":"440000",
"cityCode":"440100",
"areaCode":"440106"
},{
"idIcoreGis":"045",
"coordinateX":"113.043726",
"coordinateY":"23.983744",
"provinceCode":"440000",
"cityCode":"440100",
"areaCode":"440106"
},{
"idIcoreGis":"046",
"coordinateX":"113.355809",
"coordinateY":"23.944449",
"provinceCode":"440000",
"cityCode":"440100",
"areaCode":"440106"
},{
"idIcoreGis":"047",
"coordinateX":"113.667892",
"coordinateY":"23.905153",
"provinceCode":"440000",
"cityCode":"440100",
"areaCode":"440106"
},{
"idIcoreGis":"048",
"coordinateX":"113.979975",
"coordinateY":"23.865858",
"provinceCode":"440000",
"cityCode":"440100",
"areaCode":"440106"
},{
"idIcoreGis":"049",
"coordinateX":"113.292057",
"coordinateY":"23.826562",
"provinceCode":"440000",
"cityCode":"440100",
"areaCode":"440106"
},{
"idIcoreGis":"050",
"coordinateX":"113.604140",
"coordinateY":"23.787267",
"provinceCode":"440000",
"cityCode":"440100",
"areaCode":"440106"
},{
"idIcoreGis":"051",
"coordinateX":"113.916223",
"coordinateY":"23.747972",
"provinceCode":"440000",
"cityCode":"440100",
"areaCode":"440106"
},{
"idIcoreGis":"052",
"coordinateX":"113.228306",
"coordinateY":"23.708677",
"provinceCode":"440000",
"cityCode":"440100",
"areaCode":"440106"
},{
"idIcoreGis":"053",
"coordinateX":"113.540389",
"coordinateY":"23.669382",
"provinceCode":"440000",
"cityCode":"440100",
"areaCode":"440106"
},{
"idIcoreGis":"054",
"coordinateX":"113.852472",
"coordinateY":"23.630086",
"provinceCode":"440000",
"cityCode":"440100",
"areaCode":"440106"
},{
"idIcoreGis":"055",
"coordinateX":"113.164555",
"coordinateY":"23.590791",
"provinceCode":"440000",
"cityCode":"440100",
"areaCode":"440106"
},{
"idIcoreGis":"056",
"coordinateX":"113.476637",
"coordinateY":"23.551495",
"provinceCode":"440000",
"cityCode":"440100",
"areaCode":"440106"
},{
"idIcoreGis":"057",
"coordinateX":"113.788720",
"coordinateY":"23.512200",
"provinceCode":"440000",
"cityCode":"440100",
"areaCode":"440106"
},{
"idIcoreGis":"058",
"coordinateX":"113.100803",
"coordinateY":"23.472905",
"provinceCode":"440000",
"cityCode":"440100",
"areaCode":"440106"
},{
"idIcoreGis":"059",
"coordinateX":"113.412886",
"coordinateY":"23.433609",
"provinceCode":"440000",
"cityCode":"440100",
"areaCode":"440106"
},{
"idIcoreGis":"060",
"coordinateX":"113.724969",
"coordinateY":"23.394314",
"provinceCode":"440000",
"cityCode":"440100",
"areaCode":"440106"
},{
"idIcoreGis":"061",
"coordinateX":"113.037052",
"coordinateY":"23.355019",
"provinceCode":"440000",
"cityCode":"440100",
"areaCode":"440106"
},{
"idIcoreGis":"062",
"coordinateX":"113.349134",
"coordinateY":"23.315723",
"provinceCode":"440000",
"cityCode":"440100",
"areaCode":"440106"
},{
"idIcoreGis":"063",
"coordinateX":"113.661217",
"coordinateY":"23.276428",
"provinceCode":"440000",
"cityCode":"440100",
"areaCode":"440106"
},{
"idIcoreGis":"064",
"coordinateX":"113.973300",
"coordinateY":"23.237133",
"provinceCode":"440000",
"cityCode":"440100",
"areaCode":"440106"
},{
"idIcoreGis":"065",
"coordinateX":"113.285383",
"coordinateY":"23.197837",
"provinceCode":"440000",
"cityCode":"440100",
"areaCode":"440106"
},{
"idIcoreGis":"066",
"coordinateX":"113.597466",
"coordinateY":"23.158542",
"provinceCode":"440000",
"cityCode":"440100",
"areaCode":"440106"
},{
"idIcoreGis":"067",
"coordinateX":"113.909549",
"coordinateY":"23.119246",
"provinceCode":"440000",
"cityCode":"440100",
"areaCode":"440106"
},{
"idIcoreGis":"068",
"coordinateX":"113.221632",
"coordinateY":"23.079952",
"provinceCode":"440000",
"cityCode":"440100",
"areaCode":"440106"
},{
"idIcoreGis":"069",
"coordinateX":"113.533715",
"coordinateY":"23.040656",
"provinceCode":"440000",
"cityCode":"440100",
"areaCode":"440106"
},{
"idIcoreGis":"070",
"coordinateX":"113.845798",
"coordinateY":"23.001361",
"provinceCode":"440000",
"cityCode":"440100",
"areaCode":"440106"
},{
"idIcoreGis":"071",
"coordinateX":"113.157880",
"coordinateY":"23.962066",
"provinceCode":"440000",
"cityCode":"440100",
"areaCode":"440106"
},{
"idIcoreGis":"072",
"coordinateX":"113.469963",
"coordinateY":"23.922770",
"provinceCode":"440000",
"cityCode":"440100",
"areaCode":"440106"
},{
"idIcoreGis":"073",
"coordinateX":"113.782046",
"coordinateY":"23.883475",
"provinceCode":"440000",
"cityCode":"440100",
"areaCode":"440106"
},{
"idIcoreGis":"074",
"coordinateX":"113.094129",
"coordinateY":"23.844180",
"provinceCode":"440000",
"cityCode":"440100",
"areaCode":"440106"
},{
"idIcoreGis":"075",
"coordinateX":"113.406212",
"coordinateY":"23.804884",
"provinceCode":"440000",
"cityCode":"440100",
"areaCode":"440106"
},{
"idIcoreGis":"076",
"coordinateX":"113.718295",
"coordinateY":"23.765589",
"provinceCode":"440000",
"cityCode":"440100",
"areaCode":"440106"
},{
"idIcoreGis":"077",
"coordinateX":"113.030377",
"coordinateY":"23.726293",
"provinceCode":"440000",
"cityCode":"440100",
"areaCode":"440106"
},{
"idIcoreGis":"078",
"coordinateX":"113.342460",
"coordinateY":"23.686998",
"provinceCode":"440000",
"cityCode":"440100",
"areaCode":"440106"
},{
"idIcoreGis":"079",
"coordinateX":"113.654543",
"coordinateY":"23.647703",
"provinceCode":"440000",
"cityCode":"440100",
"areaCode":"440106"
},{
"idIcoreGis":"080",
"coordinateX":"113.966626",
"coordinateY":"23.608407",
"provinceCode":"440000",
"cityCode":"440100",
"areaCode":"440106"
},{
"idIcoreGis":"081",
"coordinateX":"113.278709",
"coordinateY":"23.569112",
"provinceCode":"440000",
"cityCode":"440100",
"areaCode":"440106"
},{
"idIcoreGis":"082",
"coordinateX":"113.590792",
"coordinateY":"23.529817",
"provinceCode":"440000",
"cityCode":"440100",
"areaCode":"440106"
},{
"idIcoreGis":"083",
"coordinateX":"113.902874",
"coordinateY":"23.490521",
"provinceCode":"440000",
"cityCode":"440100",
"areaCode":"440106"
},{
"idIcoreGis":"084",
"coordinateX":"113.214957",
"coordinateY":"23.451226",
"provinceCode":"440000",
"cityCode":"440100",
"areaCode":"440106"
},{
"idIcoreGis":"085",
"coordinateX":"113.527040",
"coordinateY":"23.411931",
"provinceCode":"440000",
"cityCode":"440100",
"areaCode":"440106"
},{
"idIcoreGis":"086",
"coordinateX":"113.839123",
"coordinateY":"23.372635",
"provinceCode":"440000",
"cityCode":"440100",
"areaCode":"440106"
},{
"idIcoreGis":"087",
"coordinateX":"113.151206",
"coordinateY":"23.333340",
"provinceCode":"440000",
"cityCode":"440100",
"areaCode":"440106"
},{
"idIcoreGis":"088",
"coordinateX":"113.463288",
"coordinateY":"23.294044",
"provinceCode":"440000",
"cityCode":"440100",
"areaCode":"440106"
},{
"idIcoreGis":"089",
"coordinateX":"113.775371",
"coordinateY":"23.254749",
"provinceCode":"440000",
"cityCode":"440100",
"areaCode":"440106"
},{
"idIcoreGis":"090",
"coordinateX":"113.087454",
"coordinateY":"23.215455",
"provinceCode":"440000",
"cityCode":"440100",
"areaCode":"440106"
},{
"idIcoreGis":"091",
"coordinateX":"113.399538",
"coordinateY":"23.176159",
"provinceCode":"440000",
"cityCode":"440100",
"areaCode":"440106"
},{
"idIcoreGis":"092",
"coordinateX":"113.711621",
"coordinateY":"23.136864",
"provinceCode":"440000",
"cityCode":"440100",
"areaCode":"440106"
},{
"idIcoreGis":"093",
"coordinateX":"113.023703",
"coordinateY":"23.097568",
"provinceCode":"440000",
"cityCode":"440100",
"areaCode":"440106"
},{
"idIcoreGis":"094",
"coordinateX":"113.335786",
"coordinateY":"23.058273",
"provinceCode":"440000",
"cityCode":"440100",
"areaCode":"440106"
},{
"idIcoreGis":"095",
"coordinateX":"113.647869",
"coordinateY":"23.018978",
"provinceCode":"440000",
"cityCode":"440100",
"areaCode":"440106"
},{
"idIcoreGis":"096",
"coordinateX":"113.959952",
"coordinateY":"23.979682",
"provinceCode":"440000",
"cityCode":"440100",
"areaCode":"440106"
},{
"idIcoreGis":"097",
"coordinateX":"113.272035",
"coordinateY":"23.940387",
"provinceCode":"440000",
"cityCode":"440100",
"areaCode":"440106"
},{
"idIcoreGis":"098",
"coordinateX":"113.584118",
"coordinateY":"23.901092",
"provinceCode":"440000",
"cityCode":"440100",
"areaCode":"440106"
},{
"idIcoreGis":"099",
"coordinateX":"113.896200",
"coordinateY":"23.861796",
"provinceCode":"440000",
"cityCode":"440100",
"areaCode":"440106"
},{
"idIcoreGis":"100",
"coordinateX":"113.208283",
"coordinateY":"23.822501",
"provinceCode":"440000",
"cityCode":"440100",
"areaCode":"440106"
},{
"idIcoreGis":"101",
"coordinateX":"113.520366",
"coordinateY":"23.783206",
"provinceCode":"440000",
"cityCode":"440100",
"areaCode":"440106"
},{
"idIcoreGis":"102",
"coordinateX":"113.832449",
"coordinateY":"23.743910",
"provinceCode":"440000",
"cityCode":"440100",
"areaCode":"440106"
},{
"idIcoreGis":"103",
"coordinateX":"113.144532",
"coordinateY":"23.704615",
"provinceCode":"440000",
"cityCode":"440100",
"areaCode":"440106"
},{
"idIcoreGis":"104",
"coordinateX":"113.456615",
"coordinateY":"23.665319",
"provinceCode":"440000",
"cityCode":"440100",
"areaCode":"440106"
},{
"idIcoreGis":"105",
"coordinateX":"113.768697",
"coordinateY":"23.626024",
"provinceCode":"440000",
"cityCode":"440100",
"areaCode":"440106"
},{
"idIcoreGis":"106",
"coordinateX":"113.080780",
"coordinateY":"23.586729",
"provinceCode":"440000",
"cityCode":"440100",
"areaCode":"440106"
},{
"idIcoreGis":"107",
"coordinateX":"113.392863",
"coordinateY":"23.547433",
"provinceCode":"440000",
"cityCode":"440100",
"areaCode":"440106"
},{
"idIcoreGis":"108",
"coordinateX":"113.704946",
"coordinateY":"23.508138",
"provinceCode":"440000",
"cityCode":"440100",
"areaCode":"440106"
},{
"idIcoreGis":"109",
"coordinateX":"113.017029",
"coordinateY":"23.468843",
"provinceCode":"440000",
"cityCode":"440100",
"areaCode":"440106"
},{
"idIcoreGis":"110",
"coordinateX":"113.329112",
"coordinateY":"23.429547",
"provinceCode":"440000",
"cityCode":"440100",
"areaCode":"440106"
},{
"idIcoreGis":"111",
"coordinateX":"113.641194",
"coordinateY":"23.390252",
"provinceCode":"440000",
"cityCode":"440100",
"areaCode":"440106"
},{
"idIcoreGis":"112",
"coordinateX":"113.953278",
"coordinateY":"23.350957",
"provinceCode":"440000",
"cityCode":"440100",
"areaCode":"440106"
},{
"idIcoreGis":"113",
"coordinateX":"113.265361",
"coordinateY":"23.311662",
"provinceCode":"440000",
"cityCode":"440100",
"areaCode":"440106"
},{
"idIcoreGis":"114",
"coordinateX":"113.577444",
"coordinateY":"23.272367",
"provinceCode":"440000",
"cityCode":"440100",
"areaCode":"440106"
},{
"idIcoreGis":"115",
"coordinateX":"113.889527",
"coordinateY":"23.233071",
"provinceCode":"440000",
"cityCode":"440100",
"areaCode":"440106"
},{
"idIcoreGis":"116",
"coordinateX":"113.201610",
"coordinateY":"23.193776",
"provinceCode":"440000",
"cityCode":"440100",
"areaCode":"440106"
},{
"idIcoreGis":"117",
"coordinateX":"113.513692",
"coordinateY":"23.154481",
"provinceCode":"440000",
"cityCode":"440100",
"areaCode":"440106"
},{
"idIcoreGis":"118",
"coordinateX":"113.825775",
"coordinateY":"23.115185",
"provinceCode":"440000",
"cityCode":"440100",
"areaCode":"440106"
},{
"idIcoreGis":"119",
"coordinateX":"113.137858",
"coordinateY":"23.075890",
"provinceCode":"440000",
"cityCode":"440100",
"areaCode":"440106"
},{
"idIcoreGis":"120",
"coordinateX":"113.449941",
"coordinateY":"23.036595",
"provinceCode":"440000",
"cityCode":"440100",
"areaCode":"440106"
},{
"idIcoreGis":"121",
"coordinateX":"113.762024",
"coordinateY":"23.997299",
"provinceCode":"440000",
"cityCode":"440100",
"areaCode":"440106"
},{
"idIcoreGis":"122",
"coordinateX":"113.074107",
"coordinateY":"23.958004",
"provinceCode":"440000",
"cityCode":"440100",
"areaCode":"440106"
},{
"idIcoreGis":"123",
"coordinateX":"113.386190",
"coordinateY":"23.918708",
"provinceCode":"440000",
"cityCode":"440100",
"areaCode":"440106"
},{
"idIcoreGis":"124",
"coordinateX":"113.698273",
"coordinateY":"23.879414",
"provinceCode":"440000",
"cityCode":"440100",
"areaCode":"440106"
},{
"idIcoreGis":"125",
"coordinateX":"113.010356",
"coordinateY":"23.840119",
"provinceCode":"440000",
"cityCode":"440100",
"areaCode":"440106"
},{
"idIcoreGis":"126",
"coordinateX":"113.322439",
"coordinateY":"23.800823",
"provinceCode":"440000",
"cityCode":"440100",
"areaCode":"440106"
},{
"idIcoreGis":"127",
"coordinateX":"113.634522",
"coordinateY":"23.761528",
"provinceCode":"440000",
"cityCode":"440100",
"areaCode":"440106"
},{
"idIcoreGis":"128",
"coordinateX":"113.946606",
"coordinateY":"23.722233",
"provinceCode":"440000",
"cityCode":"440100",
"areaCode":"440106"
},{
"idIcoreGis":"129",
"coordinateX":"113.258689",
"coordinateY":"23.682938",
"provinceCode":"440000",
"cityCode":"440100",
"areaCode":"440106"
},{
"idIcoreGis":"130",
"coordinateX":"113.570773",
"coordinateY":"23.643644",
"provinceCode":"440000",
"cityCode":"440100",
"areaCode":"440106"
},{
"idIcoreGis":"131",
"coordinateX":"113.882855",
"coordinateY":"23.604348",
"provinceCode":"440000",
"cityCode":"440100",
"areaCode":"440106"
},{
"idIcoreGis":"132",
"coordinateX":"113.194938",
"coordinateY":"23.565053",
"provinceCode":"440000",
"cityCode":"440100",
"areaCode":"440106"
},{
"idIcoreGis":"133",
"coordinateX":"113.507021",
"coordinateY":"23.525758",
"provinceCode":"440000",
"cityCode":"440100",
"areaCode":"440106"
},{
"idIcoreGis":"134",
"coordinateX":"113.819104",
"coordinateY":"23.486462",
"provinceCode":"440000",
"cityCode":"440100",
"areaCode":"440106"
},{
"idIcoreGis":"135",
"coordinateX":"113.131187",
"coordinateY":"23.447167",
"provinceCode":"440000",
"cityCode":"440100",
"areaCode":"440106"
},{
"idIcoreGis":"136",
"coordinateX":"113.443270",
"coordinateY":"23.407872",
"provinceCode":"440000",
"cityCode":"440100",
"areaCode":"440106"
},{
"idIcoreGis":"137",
"coordinateX":"113.755353",
"coordinateY":"23.368576",
"provinceCode":"440000",
"cityCode":"440100",
"areaCode":"440106"
},{
"idIcoreGis":"138",
"coordinateX":"113.067436",
"coordinateY":"23.329281",
"provinceCode":"440000",
"cityCode":"440100",
"areaCode":"440106"
},{
"idIcoreGis":"139",
"coordinateX":"113.379518",
"coordinateY":"23.289986",
"provinceCode":"440000",
"cityCode":"440100",
"areaCode":"440106"
},{
"idIcoreGis":"140",
"coordinateX":"113.691601",
"coordinateY":"23.250690",
"provinceCode":"440000",
"cityCode":"440100",
"areaCode":"440106"
},{
"idIcoreGis":"141",
"coordinateX":"113.003684",
"coordinateY":"23.211395",
"provinceCode":"440000",
"cityCode":"440100",
"areaCode":"440106"
},{
"idIcoreGis":"142",
"coordinateX":"113.315767",
"coordinateY":"23.172099",
"provinceCode":"440000",
"cityCode":"440100",
"areaCode":"440106"
},{
"idIcoreGis":"143",
"coordinateX":"113.627850",
"coordinateY":"23.132804",
"provinceCode":"440000",
"cityCode":"440100",
"areaCode":"440106"
},{
"idIcoreGis":"144",
"coordinateX":"113.939933",
"coordinateY":"23.093509",
"provinceCode":"440000",
"cityCode":"440100",
"areaCode":"440106"
},{
"idIcoreGis":"145",
"coordinateX":"113.252016",
"coordinateY":"23.054213",
"provinceCode":"440000",
"cityCode":"440100",
"areaCode":"440106"
},{
"idIcoreGis":"146",
"coordinateX":"113.564099",
"coordinateY":"23.014918",
"provinceCode":"440000",
"cityCode":"440100",
"areaCode":"440106"
},{
"idIcoreGis":"147",
"coordinateX":"113.876181",
"coordinateY":"23.975623",
"provinceCode":"440000",
"cityCode":"440100",
"areaCode":"440106"
},{
"idIcoreGis":"148",
"coordinateX":"113.188264",
"coordinateY":"23.936327",
"provinceCode":"440000",
"cityCode":"440100",
"areaCode":"440106"
},{
"idIcoreGis":"149",
"coordinateX":"113.500347",
"coordinateY":"23.897032",
"provinceCode":"440000",
"cityCode":"440100",
"areaCode":"440106"
},{
"idIcoreGis":"150",
"coordinateX":"113.812430",
"coordinateY":"23.857737",
"provinceCode":"440000",
"cityCode":"440100",
"areaCode":"440106"
},{
